[{"OBJECT_NAME":"BUFENG 1B","OBJECT_ID":"2019-032B","EPOCH":"2026-03-09T19:57:27.457920","MEAN_MOTION":15.25619535,"ECCENTRICITY":0.00242037,"INCLINATION":44.9701,"RA_OF_ASC_NODE":192.0248,"ARG_OF_PERICENTER":123.8847,"MEAN_ANOMALY":236.4342,"EPHEMERIS_TYPE":0,"CLASSIFICATION_TYPE":"U","NORAD_CAT_ID":44311,"ELEMENT_SET_NO":999,"REV_AT_EPOCH":37256,"BSTAR":0.00059375374,"MEAN_MOTION_DOT":0.00015236,"MEAN_MOTION_DDOT":0},{"OBJECT_NAME":"TOMORROW-S3","OBJECT_ID":"2024-247R","EPOCH":"2026-03-09T11:56:51.820800","MEAN_MOTION":15.27672122,"ECCENTRICITY":3.967e-5,"INCLINATION":44.9999,"RA_OF_ASC_NODE":117.9871,"ARG_OF_PERICENTER":320.9462,"MEAN_ANOMALY":39.1392,"EPHEMERIS_TYPE":0,"CLASSIFICATION_TYPE":"U","NORAD_CAT_ID":62392,"ELEMENT_SET_NO":999,"REV_AT_EPOCH":6770,"BSTAR":0.00028857954,"MEAN_MOTION_DOT":7.664e-5,"MEAN_MOTION_DDOT":0}]
